[{"OBJECT_NAME":"ONEWEB-0213","OBJECT_ID":"2021-045Z","EPOCH":"2026-03-09T19:49:21.942624","MEAN_MOTION":13.15548944,"ECCENTRICITY":0.00016514,"INCLINATION":87.8948,"RA_OF_ASC_NODE":279.0263,"ARG_OF_PERICENTER":100.3738,"MEAN_ANOMALY":259.7578,"EPHEMERIS_TYPE":0,"CLASSIFICATION_TYPE":"U","NORAD_CAT_ID":48790,"ELEMENT_SET_NO":999,"REV_AT_EPOCH":23137,"BSTAR":-1.66796e-5,"MEAN_MOTION_DOT":7.0e-8,"MEAN_MOTION_DDOT":0},{"OBJECT_NAME":"COSMOS 374 DEB","OBJECT_ID":"1970-089BF","EPOCH":"2026-03-08T02:01:30.851904","MEAN_MOTION":12.82263587,"ECCENTRICITY":0.08280097,"INCLINATION":62.8749,"RA_OF_ASC_NODE":315.7083,"ARG_OF_PERICENTER":240.4913,"MEAN_ANOMALY":111.1052,"EPHEMERIS_TYPE":0,"CLASSIFICATION_TYPE":"U","NORAD_CAT_ID":5240,"ELEMENT_SET_NO":999,"REV_AT_EPOCH":53847,"BSTAR":0.00028559698,"MEAN_MOTION_DOT":2.2e-6,"MEAN_MOTION_DDOT":0}]
